[{"OBJECT_NAME":"PELICAN-3","OBJECT_ID":"2025-188A","EPOCH":"2026-04-05T16:40:50.922912","MEAN_MOTION":15.40662816,"ECCENTRICITY":0.0005398,"INCLINATION":97.2203,"RA_OF_ASC_NODE":172.9247,"ARG_OF_PERICENTER":205.7264,"MEAN_ANOMALY":154.3715,"EPHEMERIS_TYPE":0,"CLASSIFICATION_TYPE":"U","NORAD_CAT_ID":65315,"ELEMENT_SET_NO":999,"REV_AT_EPOCH":3415,"BSTAR":0.00016018,"MEAN_MOTION_DOT":6.45e-5,"MEAN_MOTION_DDOT":0},{"OBJECT_NAME":"PELICAN-4","OBJECT_ID":"2025-188B","EPOCH":"2026-04-05T10:49:13.553184","MEAN_MOTION":15.40661204,"ECCENTRICITY":0.00046715,"INCLINATION":97.2277,"RA_OF_ASC_NODE":172.8047,"ARG_OF_PERICENTER":213.2217,"MEAN_ANOMALY":146.8737,"EPHEMERIS_TYPE":0,"CLASSIFICATION_TYPE":"U","NORAD_CAT_ID":65316,"ELEMENT_SET_NO":999,"REV_AT_EPOCH":3411,"BSTAR":0.00022418467,"MEAN_MOTION_DOT":9.062e-5,"MEAN_MOTION_DDOT":0},{"OBJECT_NAME":"PELICAN-5","OBJECT_ID":"2025-276B","EPOCH":"2026-04-05T11:42:13.766976","MEAN_MOTION":15.28185004,"ECCENTRICITY":0.00023528,"INCLINATION":97.4195,"RA_OF_ASC_NODE":170.7419,"ARG_OF_PERICENTER":230.752,"MEAN_ANOMALY":129.3511,"EPHEMERIS_TYPE":0,"CLASSIFICATION_TYPE":"U","NORAD_CAT_ID":66667,"ELEMENT_SET_NO":999,"REV_AT_EPOCH":1941,"BSTAR":0.00022999496,"MEAN_MOTION_DOT":6.243e-5,"MEAN_MOTION_DDOT":0},{"OBJECT_NAME":"PELICAN-6","OBJECT_ID":"2025-276AP","EPOCH":"2026-04-05T18:09:19.922976","MEAN_MOTION":15.28460672,"ECCENTRICITY":0.0002753,"INCLINATION":97.423,"RA_OF_ASC_NODE":171.1517,"ARG_OF_PERICENTER":91.0715,"MEAN_ANOMALY":269.084,"EPHEMERIS_TYPE":0,"CLASSIFICATION_TYPE":"U","NORAD_CAT_ID":66703,"ELEMENT_SET_NO":999,"REV_AT_EPOCH":1946,"BSTAR":0.0002601,"MEAN_MOTION_DOT":7.131e-5,"MEAN_MOTION_DDOT":0},{"OBJECT_NAME":"FLOCK 4H-1","OBJECT_ID":"2025-276AQ","EPOCH":"2026-04-05T15:22:50.907072","MEAN_MOTION":15.19761468,"ECCENTRICITY":0.000212,"INCLINATION":97.4206,"RA_OF_ASC_NODE":170.5068,"ARG_OF_PERICENTER":168.6313,"MEAN_ANOMALY":191.4971,"EPHEMERIS_TYPE":0,"CLASSIFICATION_TYPE":"U","NORAD_CAT_ID":66704,"ELEMENT_SET_NO":999,"REV_AT_EPOCH":1941,"BSTAR":0.00036526,"MEAN_MOTION_DOT":7.748e-5,"MEAN_MOTION_DDOT":0},{"OBJECT_NAME":"FLOCK 4H-2","OBJECT_ID":"2025-276AR","EPOCH":"2026-04-05T18:19:05.810880","MEAN_MOTION":15.20001418,"ECCENTRICITY":0.0001425,"INCLINATION":97.4201,"RA_OF_ASC_NODE":170.642,"ARG_OF_PERICENTER":154.1999,"MEAN_ANOMALY":205.9307,"EPHEMERIS_TYPE":0,"CLASSIFICATION_TYPE":"U","NORAD_CAT_ID":66705,"ELEMENT_SET_NO":999,"REV_AT_EPOCH":1943,"BSTAR":0.00044414,"MEAN_MOTION_DOT":9.504e-5,"MEAN_MOTION_DDOT":0},{"OBJECT_NAME":"FLOCK 4H-3","OBJECT_ID":"2025-276AS","EPOCH":"2026-04-05T18:16:16.668192","MEAN_MOTION":15.19126485,"ECCENTRICITY":0.0002826,"INCLINATION":97.4271,"RA_OF_ASC_NODE":170.6071,"ARG_OF_PERICENTER":240.3218,"MEAN_ANOMALY":119.7735,"EPHEMERIS_TYPE":0,"CLASSIFICATION_TYPE":"U","NORAD_CAT_ID":66706,"ELEMENT_SET_NO":999,"REV_AT_EPOCH":1942,"BSTAR":0.00042745,"MEAN_MOTION_DOT":8.914e-5,"MEAN_MOTION_DDOT":0},{"OBJECT_NAME":"FLOCK 4H-4","OBJECT_ID":"2025-276AT","EPOCH":"2026-04-05T15:36:34.907328","MEAN_MOTION":15.18888882,"ECCENTRICITY":0.0003353,"INCLINATION":97.4254,"RA_OF_ASC_NODE":170.4227,"ARG_OF_PERICENTER":244.28,"MEAN_ANOMALY":115.8089,"EPHEMERIS_TYPE":0,"CLASSIFICATION_TYPE":"U","NORAD_CAT_ID":66707,"ELEMENT_SET_NO":999,"REV_AT_EPOCH":1940,"BSTAR":0.00038872,"MEAN_MOTION_DOT":8.044e-5,"MEAN_MOTION_DDOT":0},{"OBJECT_NAME":"FLOCK 4H-5","OBJECT_ID":"2025-276AU","EPOCH":"2026-04-05T18:26:04.100928","MEAN_MOTION":15.19791944,"ECCENTRICITY":0.0001329,"INCLINATION":97.4206,"RA_OF_ASC_NODE":170.6465,"ARG_OF_PERICENTER":131.1912,"MEAN_ANOMALY":228.9438,"EPHEMERIS_TYPE":0,"CLASSIFICATION_TYPE":"U","NORAD_CAT_ID":66708,"ELEMENT_SET_NO":999,"REV_AT_EPOCH":1943,"BSTAR":0.00040524,"MEAN_MOTION_DOT":8.612e-5,"MEAN_MOTION_DDOT":0},{"OBJECT_NAME":"FLOCK 4H-6","OBJECT_ID":"2025-276AV","EPOCH":"2026-04-05T15:52:12.670464","MEAN_MOTION":15.194641,"ECCENTRICITY":0.0002648,"INCLINATION":97.4258,"RA_OF_ASC_NODE":170.5674,"ARG_OF_PERICENTER":195.8974,"MEAN_ANOMALY":164.2178,"EPHEMERIS_TYPE":0,"CLASSIFICATION_TYPE":"U","NORAD_CAT_ID":66709,"ELEMENT_SET_NO":999,"REV_AT_EPOCH":1941,"BSTAR":0.00040406,"MEAN_MOTION_DOT":8.505e-5,"MEAN_MOTION_DDOT":0},{"OBJECT_NAME":"FLOCK 4H-7","OBJECT_ID":"2025-276AW","EPOCH":"2026-04-05T18:12:15.293376","MEAN_MOTION":15.19205418,"ECCENTRICITY":8.77e-5,"INCLINATION":97.4213,"RA_OF_ASC_NODE":170.5129,"ARG_OF_PERICENTER":281.9431,"MEAN_ANOMALY":78.1705,"EPHEMERIS_TYPE":0,"CLASSIFICATION_TYPE":"U","NORAD_CAT_ID":66710,"ELEMENT_SET_NO":999,"REV_AT_EPOCH":1942,"BSTAR":0.0004438,"MEAN_MOTION_DOT":9.279e-5,"MEAN_MOTION_DDOT":0},{"OBJECT_NAME":"FLOCK 4H-8","OBJECT_ID":"2025-276AX","EPOCH":"2026-04-05T18:07:42.627936","MEAN_MOTION":15.19276077,"ECCENTRICITY":0.0002144,"INCLINATION":97.4254,"RA_OF_ASC_NODE":170.593,"ARG_OF_PERICENTER":260.3256,"MEAN_ANOMALY":99.7737,"EPHEMERIS_TYPE":0,"CLASSIFICATION_TYPE":"U","NORAD_CAT_ID":66711,"ELEMENT_SET_NO":999,"REV_AT_EPOCH":1942,"BSTAR":0.00045599,"MEAN_MOTION_DOT":9.556e-5,"MEAN_MOTION_DDOT":0},{"OBJECT_NAME":"FLOCK 4H-9","OBJECT_ID":"2025-276AY","EPOCH":"2026-04-05T17:21:04.778208","MEAN_MOTION":15.1958527,"ECCENTRICITY":0.0002593,"INCLINATION":97.4241,"RA_OF_ASC_NODE":170.623,"ARG_OF_PERICENTER":206.3893,"MEAN_ANOMALY":153.721,"EPHEMERIS_TYPE":0,"CLASSIFICATION_TYPE":"U","NORAD_CAT_ID":66712,"ELEMENT_SET_NO":999,"REV_AT_EPOCH":1942,"BSTAR":0.00038517,"MEAN_MOTION_DOT":8.133e-5,"MEAN_MOTION_DDOT":0},{"OBJECT_NAME":"FLOCK 4H-10","OBJECT_ID":"2025-276AZ","EPOCH":"2026-04-05T12:15:40.822560","MEAN_MOTION":15.19005441,"ECCENTRICITY":0.00031905,"INCLINATION":97.422,"RA_OF_ASC_NODE":170.247,"ARG_OF_PERICENTER":246.2451,"MEAN_ANOMALY":113.8449,"EPHEMERIS_TYPE":0,"CLASSIFICATION_TYPE":"U","NORAD_CAT_ID":66713,"ELEMENT_SET_NO":999,"REV_AT_EPOCH":1938,"BSTAR":0.00038417794,"MEAN_MOTION_DOT":7.976e-5,"MEAN_MOTION_DDOT":0},{"OBJECT_NAME":"FLOCK 4H-11","OBJECT_ID":"2025-276BA","EPOCH":"2026-04-05T18:18:55.231200","MEAN_MOTION":15.20747149,"ECCENTRICITY":0.0001824,"INCLINATION":97.4231,"RA_OF_ASC_NODE":170.7055,"ARG_OF_PERICENTER":250.77,"MEAN_ANOMALY":109.3338,"EPHEMERIS_TYPE":0,"CLASSIFICATION_TYPE":"U","NORAD_CAT_ID":66714,"ELEMENT_SET_NO":999,"REV_AT_EPOCH":1943,"BSTAR":0.00086612,"MEAN_MOTION_DOT":0.0001903,"MEAN_MOTION_DDOT":0},{"OBJECT_NAME":"FLOCK 4H-12","OBJECT_ID":"2025-276BB","EPOCH":"2026-04-05T15:31:37.984224","MEAN_MOTION":15.19637238,"ECCENTRICITY":0.0002023,"INCLINATION":97.4218,"RA_OF_ASC_NODE":170.5137,"ARG_OF_PERICENTER":176.3116,"MEAN_ANOMALY":183.8134,"EPHEMERIS_TYPE":0,"CLASSIFICATION_TYPE":"U","NORAD_CAT_ID":66715,"ELEMENT_SET_NO":999,"REV_AT_EPOCH":1972,"BSTAR":0.00036311,"MEAN_MOTION_DOT":7.674e-5,"MEAN_MOTION_DDOT":0},{"OBJECT_NAME":"FLOCK 4H-13","OBJECT_ID":"2025-276BC","EPOCH":"2026-04-05T18:18:19.167840","MEAN_MOTION":15.19889152,"ECCENTRICITY":0.0001935,"INCLINATION":97.4249,"RA_OF_ASC_NODE":170.7262,"ARG_OF_PERICENTER":145.4255,"MEAN_ANOMALY":214.7106,"EPHEMERIS_TYPE":0,"CLASSIFICATION_TYPE":"U","NORAD_CAT_ID":66716,"ELEMENT_SET_NO":999,"REV_AT_EPOCH":1943,"BSTAR":0.00042312,"MEAN_MOTION_DOT":9.021e-5,"MEAN_MOTION_DDOT":0}]
