PELICAN-3               
1 65315U 25188A   26095.69503383  .00006450  00000+0  16018-3 0  9996
2 65315  97.2203 172.9247 0005398 205.7264 154.3715 15.40662816 34156
PELICAN-4               
1 65316U 25188B   26095.45085131  .00009062  00000+0  22418-3 0  9990
2 65316  97.2277 172.8047 0004671 213.2217 146.8737 15.40661204 34116
PELICAN-5               
1 66667U 25276B   26095.48765934  .00006243  00000+0  22999-3 0  9999
2 66667  97.4195 170.7419 0002352 230.7520 129.3511 15.28185004 19419
PELICAN-6               
1 66703U 25276AP  26095.75648059  .00007131  00000+0  26010-3 0  9993
2 66703  97.4230 171.1517 0002753  91.0715 269.0840 15.28460672 19462
FLOCK 4H-1              
1 66704U 25276AQ  26095.64086698  .00007748  00000+0  36526-3 0  9994
2 66704  97.4206 170.5068 0002120 168.6313 191.4971 15.19761468 19418
FLOCK 4H-2              
1 66705U 25276AR  26095.76326170  .00009504  00000+0  44414-3 0  9997
2 66705  97.4201 170.6420 0001425 154.1999 205.9307 15.20001418 19434
FLOCK 4H-3              
1 66706U 25276AS  26095.76130403  .00008914  00000+0  42745-3 0  9999
2 66706  97.4271 170.6071 0002826 240.3218 119.7735 15.19126485 19428
FLOCK 4H-4              
1 66707U 25276AT  26095.65040402  .00008044  00000+0  38872-3 0  9997
2 66707  97.4254 170.4227 0003353 244.2800 115.8089 15.18888882 19409
FLOCK 4H-5              
1 66708U 25276AU  26095.76810302  .00008612  00000+0  40524-3 0  9992
2 66708  97.4206 170.6465 0001329 131.1912 228.9438 15.19791944 19432
FLOCK 4H-6              
1 66709U 25276AV  26095.66125776  .00008505  00000+0  40406-3 0  9996
2 66709  97.4258 170.5674 0002648 195.8974 164.2178 15.19464100 19413
FLOCK 4H-7              
1 66710U 25276AW  26095.75851034  .00009279  00000+0  44380-3 0  9995
2 66710  97.4213 170.5129 0000877 281.9431  78.1705 15.19205418 19423
FLOCK 4H-8              
1 66711U 25276AX  26095.75535449  .00009556  00000+0  45599-3 0  9996
2 66711  97.4254 170.5930 0002144 260.3256  99.7737 15.19276077 19427
FLOCK 4H-9              
1 66712U 25276AY  26095.72297197  .00008133  00000+0  38517-3 0  9991
2 66712  97.4241 170.6230 0002593 206.3893 153.7210 15.19585270 19428
FLOCK 4H-10             
1 66713U 25276AZ  26095.51088915  .00007976  00000+0  38418-3 0  9999
2 66713  97.4220 170.2470 0003190 246.2451 113.8449 15.19005441 19388
FLOCK 4H-11             
1 66714U 25276BA  26095.76313925  .00019030  00000+0  86612-3 0  9992
2 66714  97.4231 170.7055 0001824 250.7700 109.3338 15.20747149 19437
FLOCK 4H-12             
1 66715U 25276BB  26095.64696741  .00007674  00000+0  36311-3 0  9992
2 66715  97.4218 170.5137 0002023 176.3116 183.8134 15.19637238 19726
FLOCK 4H-13             
1 66716U 25276BC  26095.76272185  .00009021  00000+0  42312-3 0  9994
2 66716  97.4249 170.7262 0001935 145.4255 214.7106 15.19889152 19439
